NORAD_CAT_ID,OBJECT_NAME,OBJECT_TYPE,EPOCH,MEAN_MOTION,ECCENTRICITY,INCLINATION,RA_OF_ASC_NODE,ARG_OF_PERICENTER,MEAN_ANOMALY,BSTAR,MEAN_MOTION_DOT,MEAN_MOTION_DDOT,TLE_LINE0,TLE_LINE1,TLE_LINE2,SEMIMAJOR_AXIS,PERIOD,APOGEE,PERIGEE,DECAYED
50178.0,STARLINK-3284,PAYLOAD,2023-02-17 18:40:47,15.08834214,0.0001073,53.217,218.6359,87.0867,273.0247,3.3774e-05,2.5e-06,0.0,0 STARLINK-3284,1 50178U 21125Y   23048.77832438  .00000250  00000-0  33774-4 0  9996,2 50178  53.2170 218.6359 0001073  87.0867 273.0247 15.08834214 68175,6917.898,95.438,540.505,539.021,0.0
50178.0,STARLINK-3284,PAYLOAD,2023-02-18 04:13:05,15.08836556,9.9e-05,53.2171,216.8512,78.4157,281.6946,4.004e-05,3.49e-06,0.0,0 STARLINK-3284,1 50178U 21125Y   23049.17576358  .00000349  00000-0  40040-4 0  9990,2 50178  53.2171 216.8512 0000990  78.4157 281.6946 15.08836556 67700,6917.891,95.438,540.441,539.071,0.0
50178.0,STARLINK-3284,PAYLOAD,2023-02-18 12:10:01,15.08835806,0.0001175,53.2168,215.365,86.6056,273.5071,7.7632e-05,9.48e-06,0.0,0 STARLINK-3284,1 50178U 21125Y   23049.50696334  .00000948  00000-0  77632-4 0  9996,2 50178  53.2168 215.3650 0001175  86.6056 273.5071 15.08835806 68288,6917.893,95.438,540.571,538.945,0.0
50178.0,STARLINK-3284,PAYLOAD,2023-02-19 04:03:52,15.08849882,0.0001157,53.2169,212.3903,82.535,277.5773,-0.00010286,-1.925e-05,0.0,0 STARLINK-3284,1 50178U 21125Y   23050.16935951 -.00001925  00000-0 -10286-3 0  9990,2 50178  53.2169 212.3903 0001157  82.5350 277.5773 15.08849882 67853,6917.85,95.437,540.516,538.915,0.0
50178.0,STARLINK-3284,PAYLOAD,2023-02-19 10:25:25,15.08833171,0.0001167,53.2168,211.2009,83.609,276.5035,0.00010285,1.349e-05,0.0,0 STARLINK-3284,1 50178U 21125Y   23050.43432608  .00001349  00000-0  10285-3 0  9998,2 50178  53.2168 211.2009 0001167  83.6090 276.5035 15.08833171 68429,6917.901,95.438,540.574,538.959,0.0
50178.0,STARLINK-3284,PAYLOAD,2023-02-19 16:46:58,15.08836986,0.0001173,53.2168,210.0118,82.8014,277.3112,0.00012655,1.727e-05,0.0,0 STARLINK-3284,1 50178U 21125Y   23050.69928375  .00001727  00000-0  12655-3 0  9990,2 50178  53.2168 210.0118 0001173  82.8014 277.3112 15.08836986 67938,6917.89,95.438,540.566,538.943,0.0
50178.0,STARLINK-3284,PAYLOAD,2023-02-20 03:54:39,15.08842621,0.0001147,53.217,207.9313,79.9828,280.1293,9.2946e-05,1.192e-05,0.0,0 STARLINK-3284,1 50178U 21125Y   23051.16296056  .00001192  00000-0  92946-4 0  9995,2 50178  53.2170 207.9313 0001147  79.9828 280.1293 15.08842621 68536,6917.872,95.437,540.531,538.944,0.0
50178.0,STARLINK-3284,PAYLOAD,2023-02-20 15:02:20,15.08900747,0.0001505,53.2168,205.8492,67.3766,292.7386,-0.00080181,-0.00013047,0.0,0 STARLINK-3284,1 50178U 21125Y   23051.62662303 -.00013047  00000-0 -80181-3 0  9999,2 50178  53.2168 205.8492 0001505  67.3766 292.7386 15.08900747 68073,6917.695,95.434,540.601,538.519,0.0
50178.0,STARLINK-3284,PAYLOAD,2023-02-20 16:37:44,15.08841523,0.0001204,53.2165,205.5519,76.9044,283.2082,6.7627e-05,7.89e-06,0.0,0 STARLINK-3284,1 50178U 21125Y   23051.69288160  .00000789  00000-0  67627-4 0  9999,2 50178  53.2165 205.5519 0001204  76.9044 283.2082 15.08841523 68083,6917.876,95.437,540.574,538.908,0.0
50178.0,STARLINK-3284,PAYLOAD,2023-02-21 14:53:08,15.08843556,0.0001196,53.2162,201.3895,75.854,284.2585,5.5228e-05,5.91e-06,0.0,0 STARLINK-3284,1 50178U 21125Y   23052.62023888  .00000591  00000-0  55228-4 0  9992,2 50178  53.2162 201.3895 0001196  75.8540 284.2585 15.08843556 68751,6917.87,95.437,540.562,538.907,0.0
50178.0,STARLINK-3284,PAYLOAD,2023-02-21 16:28:31,15.08845912,0.0001144,53.2164,201.0901,85.6691,274.4432,0.00010161,1.33e-05,0.0,0 STARLINK-3284,1 50178U 21125Y   23052.68647543  .00001330  00000-0  10161-3 0  9996,2 50178  53.2164 201.0901 0001144  85.6691 274.4432 15.08845912 68768,6917.862,95.437,540.519,538.936,0.0
50178.0,STARLINK-3284,PAYLOAD,2023-02-22 09:57:46,15.08838952,0.0001125,53.2161,197.8206,81.0253,279.0866,1.9742e-05,2.6e-07,0.0,0 STARLINK-3284,1 50178U 21125Y   23053.41512134  .00000026  00000-0  19742-4 0  9991,2 50178  53.2161 197.8206 0001125  81.0253 279.0866 15.08838952 68340,6917.884,95.438,540.527,538.97,0.0
50178.0,STARLINK-3284,PAYLOAD,2023-02-22 13:08:32,15.08837496,0.0001125,53.2169,197.2248,84.0093,276.1027,-3.6494e-08,-2.88e-06,0.0,0 STARLINK-3284,1 50178U 21125Y   23053.54760242 -.00000288  00000-0 -36494-7 0  9998,2 50178  53.2169 197.2248 0001125  84.0093 276.1027 15.08837496 68892,6917.888,95.438,540.531,538.975,0.0
50178.0,STARLINK-3284,PAYLOAD,2023-02-22 16:19:18,15.08839406,0.0001055,53.2164,196.6309,88.9265,271.1848,2.2373e-05,6.8e-07,0.0,0 STARLINK-3284,1 50178U 21125Y   23053.68008039  .00000068  00000-0  22373-4 0  9994,2 50178  53.2164 196.6309 0001055  88.9265 271.1848 15.08839406 68916,6917.882,95.438,540.477,539.017,0.0
50178.0,STARLINK-3284,PAYLOAD,2023-02-23 09:48:33,15.08835002,0.0001067,53.2164,193.3604,85.9893,274.1221,-2.7037e-05,-7.18e-06,0.0,0 STARLINK-3284,1 50178U 21125Y   23054.40872609 -.00000718  00000-0 -27037-4 0  9993,2 50178  53.2164 193.3604 0001067  85.9893 274.1221 15.08835002 69024,6917.896,95.438,540.499,539.023,0.0
50178.0,STARLINK-3284,PAYLOAD,2023-02-23 14:34:43,15.08835341,9.93e-05,53.2168,192.4675,77.0389,283.0714,2.872e-05,1.69e-06,0.0,0 STARLINK-3284,1 50178U 21125Y   23054.60744435  .00000169  00000-0  28720-4 0  9998,2 50178  53.2168 192.4675 0000993  77.0389 283.0714 15.08835341 68521,6917.895,95.438,540.447,539.073,0.0
50178.0,STARLINK-3284,PAYLOAD,2023-02-24 11:14:43,15.0884217,0.0001345,53.2165,188.602,112.5156,247.5979,-4.6397e-05,-1.026e-05,0.0,0 STARLINK-3284,1 50178U 21125Y   23055.46856354 -.00001026  00000-0 -46397-4 0  9992,2 50178  53.2165 188.6020 0001345 112.5156 247.5979 15.08842170 69187,6917.874,95.437,540.669,538.808,0.0
50178.0,STARLINK-3284,PAYLOAD,2023-02-24 14:25:29,15.08846969,9.53e-05,53.2167,188.0083,103.4924,256.6174,0.00013232,1.819e-05,0.0,0 STARLINK-3284,1 50178U 21125Y   23055.60103474  .00001819  00000-0  13232-3 0  9995,2 50178  53.2167 188.0083 0000953 103.4924 256.6174 15.08846969 68679,6917.859,95.437,540.383,539.065,0.0
50178.0,STARLINK-3284,PAYLOAD,2023-02-25 12:40:54,15.08825937,8.21e-05,53.2173,183.847,100.51,259.5985,-3.511e-05,-8.46e-06,0.0,0 STARLINK-3284,1 50178U 21125Y   23056.52841432 -.00000846  00000-0 -35110-4 0  9991,2 50178  53.2173 183.8470 0000821 100.5100 259.5985 15.08825937 68817,6917.923,95.438,540.356,539.22,0.0
50178.0,STARLINK-3284,PAYLOAD,2023-02-25 15:51:40,15.08833136,8.96e-05,53.2169,183.2512,94.9774,265.132,-1.8374e-05,-5.8e-06,0.0,0 STARLINK-3284,1 50178U 21125Y   23056.66089015 -.00000580  00000-0 -18374-4 0  9995,2 50178  53.2169 183.2512 0000896  94.9774 265.1320 15.08833136 68836,6917.901,95.438,540.386,539.147,0.0
50178.0,STARLINK-3284,PAYLOAD,2023-02-25 20:37:49,15.08842388,9.83e-05,53.217,182.3573,88.5991,271.5114,5.172e-05,5.36e-06,0.0,0 STARLINK-3284,1 50178U 21125Y   23056.85960264  .00000536  00000-0  51720-4 0  9991,2 50178  53.2170 182.3573 0000983  88.5991 271.5114 15.08842388 69395,6917.873,95.437,540.418,539.058,0.0
50178.0,STARLINK-3284,PAYLOAD,2023-02-26 07:45:32,15.08830163,5.18e-05,53.2182,180.2761,103.8097,256.2953,-3.9288e-06,-3.5e-06,0.0,0 STARLINK-3284,1 50178U 21125Y   23057.32329227 -.00000350  00000-0 -39288-5 0  9994,2 50178  53.2182 180.2761 0000518 103.8097 256.2953 15.08830163 69463,6917.91,95.438,540.134,539.417,0.0
50178.0,STARLINK-3284,PAYLOAD,2023-02-26 17:17:49,15.08859021,9.57e-05,53.218,178.4909,97.133,262.9771,0.00011547,1.551e-05,0.0,0 STARLINK-3284,1 50178U 21125Y   23057.72071036  .00001551  00000-0  11547-3 0  9998,2 50178  53.2180 178.4909 0000957  97.1330 262.9771 15.08859021 68999,6917.822,95.436,540.349,539.025,0.0
50178.0,STARLINK-3284,PAYLOAD,2023-02-27 01:14:46,15.08839523,7.69e-05,53.2186,177.0061,89.5123,270.5958,-2.7941e-05,-7.32e-06,0.0,0 STARLINK-3284,1 50178U 21125Y   23058.05192493 -.00000732  00000-0 -27941-4 0  9994,2 50178  53.2186 177.0061 0000769  89.5123 270.5958 15.08839523 69049,6917.882,95.438,540.279,539.215,0.0
50178.0,STARLINK-3284,PAYLOAD,2023-02-27 10:47:05,15.08831346,0.0001114,53.2164,175.2233,90.979,269.133,0.00010699,1.415e-05,0.0,0 STARLINK-3284,1 50178U 21125Y   23058.44936918  .00001415  00000-0  10699-3 0  9993,2 50178  53.2164 175.2233 0001114  90.9790 269.1330 15.08831346 69635,6917.907,95.438,540.542,539.001,0.0
50178.0,STARLINK-3284,PAYLOAD,2023-02-27 13:57:50,15.08854192,0.0001002,53.2177,174.6245,111.9608,248.1491,0.00017311,2.469e-05,0.0,0 STARLINK-3284,1 50178U 21125Y   23058.58183271  .00002469  00000-0  17311-3 0  9992,2 50178  53.2177 174.6245 0001002 111.9608 248.1491 15.08854192 69654,6917.837,95.437,540.395,539.009,0.0
50178.0,STARLINK-3284,PAYLOAD,2023-02-28 01:05:32,15.08852584,0.000107,53.2172,172.546,68.8782,291.2324,8.8762e-05,1.126e-05,0.0,0 STARLINK-3284,1 50178U 21125Y   23059.04551501  .00001126  00000-0  88762-4 0  9997,2 50178  53.2172 172.5460 0001070  68.8782 291.2324 15.08852584 69199,6917.842,95.437,540.447,538.967,0.0
50178.0,STARLINK-3284,PAYLOAD,2023-02-28 13:48:37,15.08855315,0.0001138,53.2171,170.1641,99.5039,260.6082,1.5895e-05,-3.5e-07,0.0,0 STARLINK-3284,1 50178U 21125Y   23059.57543269 -.00000035  00000-0  15895-4 0  9993,2 50178  53.2171 170.1641 0001138  99.5039 260.6082 15.08855315 69808,6917.834,95.437,540.486,538.911,0.0
50178.0,STARLINK-3284,PAYLOAD,2023-02-28 18:34:45,15.08864444,9.97e-05,53.2176,169.2745,84.1413,275.9693,0.00014306,1.991e-05,0.0,0 STARLINK-3284,1 50178U 21125Y   23059.77414039  .00001991  00000-0  14306-3 0  9993,2 50178  53.2176 169.2745 0000997  84.1413 275.9693 15.08864444 69838,6917.806,95.436,540.36,538.981,0.0
50178.0,STARLINK-3284,PAYLOAD,2023-03-01 10:28:41,15.08815608,0.000133,53.217,166.3022,88.7362,271.3783,-0.00013205,-2.387e-05,0.0,0 STARLINK-3284,1 50178U 21125Y   23060.43658572 -.00002387  00000-0 -13205-3 0  9999,2 50178  53.2170 166.3022 0001330  88.7362 271.3783 15.08815608 69404,6917.955,95.439,540.74,538.9,0.0
